{"type": "FeatureCollection", "features": [ {"type": "Feature", "properties": {"norad_id": 66052, "name": "HRC MONOBLOCK CAMERA", "group": "stations", "lat": -33.97725505613689, "lon": -3.7328049973898754, "alt_km": 407.0757584980329, "timestamp": "2025-12-12T05:47:27.545813+00:00", "meta": {"OBJECT_NAME": "HRC MONOBLOCK CAMERA", "OBJECT_ID": "1998-067XR", "EPOCH": "2025-12-11T22:39:06.959520", "MEAN_MOTION": 15.54045503, "ECCENTRICITY": 0.00034494, "INCLINATION": 51.6287, "RA_OF_ASC_NODE": 145.4758, "ARG_OF_PERICENTER": 180.1091, "MEAN_ANOMALY": 179.9899, "EPHEMERIS_TYPE": 0, "CLASSIFICATION_TYPE": "U", "NORAD_CAT_ID": 66052, "ELEMENT_SET_NO": 999, "REV_AT_EPOCH": 871, "BSTAR": 0.00072087374, "MEAN_MOTION_DOT": 0.00047388, "MEAN_MOTION_DDOT": 0}, "tle": {"line1": "1 66052U 98067XR  25345.94383055  .00047388  00000+0  72087-3 0  9991", "line2": "2 66052  51.6287 145.4758 0003449 180.1091 179.9899 15.54045503  8714"}}, "geometry": {"type": "Point", "coordinates": [-3.7328049973898754, -33.97725505613689]}}, {"type": "Feature", "properties": {"norad_id": 66174, "name": "HTV-X1", "group": "stations", "lat": 38.99741322376188, "lon": -74.95845922978634, "alt_km": 413.68360555987783, "timestamp": "2025-12-12T05:47:27.545823+00:00", "meta": {"OBJECT_NAME": "HTV-X1", "OBJECT_ID": "2025-241A", "EPOCH": "2025-12-11T21:30:28.324224", "MEAN_MOTION": 15.49521399, "ECCENTRICITY": 0.00032978, "INCLINATION": 51.6307, "RA_OF_ASC_NODE": 146.6565, "ARG_OF_PERICENTER": 237.1442, "MEAN_ANOMALY": 122.9229, "EPHEMERIS_TYPE": 0, "CLASSIFICATION_TYPE": "U", "NORAD_CAT_ID": 66174, "ELEMENT_SET_NO": 999, "REV_AT_EPOCH": 51, "BSTAR": 0.00026380738, "MEAN_MOTION_DOT": 0.00014378, "MEAN_MOTION_DDOT": 0}, "tle": {"line1": "1 66174U 25241A   25345.89616116  .00014378  00000+0  26381-3 0  9990", "line2": "2 66174  51.6307 146.6565 0003297 237.1442 122.9229 15.49521399   516"}}, "geometry": {"type": "Point", "coordinates": [-74.95845922978634, 38.99741322376188]}}, {"type": "Feature", "properties": {"norad_id": 66515, "name": "SZ-21 MODULE", "group": "stations", "lat": 34.17615165149427, "lon": 148.85423057331604, "alt_km": 378.05800847923365, "timestamp": "2025-12-12T05:47:27.545833+00:00", "meta": {"OBJECT_NAME": "SZ-21 MODULE", "OBJECT_ID": "2025-246C", "EPOCH": "2025-12-11T12:23:47.617440", "MEAN_MOTION": 15.62393058, "ECCENTRICITY": 0.00063024, "INCLINATION": 41.4773, "RA_OF_ASC_NODE": 23.5075, "ARG_OF_PERICENTER": 253.7333, "MEAN_ANOMALY": 106.2813, "EPHEMERIS_TYPE": 0, "CLASSIFICATION_TYPE": "U", "NORAD_CAT_ID": 66515, "ELEMENT_SET_NO": 999, "REV_AT_EPOCH": 425, "BSTAR": 0.00046258705, "MEAN_MOTION_DOT": 0.00042118, "MEAN_MOTION_DDOT": 0}, "tle": {"line1": "1 66515U 25246C   25345.51652335  .00042118  00000+0  46259-3 0  9995", "line2": "2 66515  41.4773  23.5075 0006302 253.7333 106.2813 15.62393058  4254"}}, "geometry": {"type": "Point", "coordinates": [148.85423057331604, 34.17615165149427]}}, {"type": "Feature", "properties": {"norad_id": 66645, "name": "SHENZHOU-22", "group": "stations", "lat": -24.9783231919155, "lon": -128.42981335867051, "alt_km": 397.9236595405455, "timestamp": "2025-12-12T05:47:27.545843+00:00", "meta": {"OBJECT_NAME": "SHENZHOU-22", "OBJECT_ID": "2025-272A", "EPOCH": "2025-12-11T19:37:47.505216", "MEAN_MOTION": 15.59116827, "ECCENTRICITY": 0.00085427, "INCLINATION": 41.4685, "RA_OF_ASC_NODE": 22.304, "ARG_OF_PERICENTER": 22.5495, "MEAN_ANOMALY": 337.5718, "EPHEMERIS_TYPE": 0, "CLASSIFICATION_TYPE": "U", "NORAD_CAT_ID": 66645, "ELEMENT_SET_NO": 999, "REV_AT_EPOCH": 26357, "BSTAR": 0.00035527983, "MEAN_MOTION_DOT": 0.00028382, "MEAN_MOTION_DDOT": 0}, "tle": {"line1": "1 66645U 25272A   25345.81791094  .00028382  00000+0  35528-3 0  9991", "line2": "2 66645  41.4685  22.3040 0008542  22.5495 337.5718 15.59116827263576"}}, "geometry": {"type": "Point", "coordinates": [-128.42981335867051, -24.9783231919155]}}, {"type": "Feature", "properties": {"norad_id": 66664, "name": "SOYUZ-MS 28", "group": "stations", "lat": 38.997412057110914, "lon": -74.95845723656771, "alt_km": 413.6836056723532, "timestamp": "2025-12-12T05:47:27.545853+00:00", "meta": {"OBJECT_NAME": "SOYUZ-MS 28", "OBJECT_ID": "2025-275A", "EPOCH": "2025-12-11T21:30:28.324224", "MEAN_MOTION": 15.49521399, "ECCENTRICITY": 0.00032978, "INCLINATION": 51.6307, "RA_OF_ASC_NODE": 146.6565, "ARG_OF_PERICENTER": 237.1442, "MEAN_ANOMALY": 122.9229, "EPHEMERIS_TYPE": 0, "CLASSIFICATION_TYPE": "U", "NORAD_CAT_ID": 66664, "ELEMENT_SET_NO": 999, "REV_AT_EPOCH": 128, "BSTAR": 0.00026380738, "MEAN_MOTION_DOT": 0.00014378, "MEAN_MOTION_DDOT": 0}, "tle": {"line1": "1 66664U 25275A   25345.89616116  .00014378  00000+0  26381-3 0  9991", "line2": "2 66664  51.6307 146.6565 0003297 237.1442 122.9229 15.49521399  1285"}}, "geometry": {"type": "Point", "coordinates": [-74.95845723656771, 38.997412057110914]}}, {"type": "Feature", "properties": {"norad_id": 66906, "name": "1998-067XS", "group": "stations", "lat": 19.85097407052729, "lon": -51.73225901990314, "alt_km": 411.2896285219522, "timestamp": "2025-12-12T05:47:27.545863+00:00", "meta": {"OBJECT_NAME": "1998-067XS", "OBJECT_ID": "1998-067XS", "EPOCH": "2025-12-11T19:50:50.396352", "MEAN_MOTION": 15.50491702, "ECCENTRICITY": 0.00036759, "INCLINATION": 51.6297, "RA_OF_ASC_NODE": 146.9447, "ARG_OF_PERICENTER": 198.3211, "MEAN_ANOMALY": 161.7647, "EPHEMERIS_TYPE": 0, "CLASSIFICATION_TYPE": "U", "NORAD_CAT_ID": 66906, "ELEMENT_SET_NO": 999, "REV_AT_EPOCH": 147, "BSTAR": 0.00060264305, "MEAN_MOTION_DOT": 0.00034698, "MEAN_MOTION_DDOT": 0}, "tle": {"line1": "1 66906U 98067XS  25345.82697218  .00034698  00000+0  60264-3 0  9999", "line2": "2 66906  51.6297 146.9447 0003675 198.3211 161.7647 15.50491702  1478"}}, "geometry": {"type": "Point", "coordinates": [-51.73225901990314, 19.85097407052729]}}, {"type": "Feature", "properties": {"norad_id": 66907, "name": "1998-067XT", "group": "stations", "lat": 9.613407095955306, "lon": -42.85496596787983, "alt_km": 410.3725741287626, "timestamp": "2025-12-12T05:47:27.545873+00:00", "meta": {"OBJECT_NAME": "1998-067XT", "OBJECT_ID": "1998-067XT", "EPOCH": "2025-12-09T12:07:37.114752", "MEAN_MOTION": 15.50864429, "ECCENTRICITY": 0.00048036, "INCLINATION": 51.6307, "RA_OF_ASC_NODE": 158.4423, "ARG_OF_PERICENTER": 208.5081, "MEAN_ANOMALY": 151.5646, "EPHEMERIS_TYPE": 0, "CLASSIFICATION_TYPE": "U", "NORAD_CAT_ID": 66907, "ELEMENT_SET_NO": 999, "REV_AT_EPOCH": 111, "BSTAR": 0.0012921241, "MEAN_MOTION_DOT": 0.00076342, "MEAN_MOTION_DDOT": 0}, "tle": {"line1": "1 66907U 98067XT  25343.50529068  .00076342  00000+0  12921-2 0  9998", "line2": "2 66907  51.6307 158.4423 0004803 208.5081 151.5646 15.50864429  1113"}}, "geometry": {"type": "Point", "coordinates": [-42.85496596787983, 9.613407095955306]}}, {"type": "Feature", "properties": {"norad_id": 66908, "name": "1998-067XU", "group": "stations", "lat": 8.062557298122265, "lon": -41.586846055058714, "alt_km": 410.26906616822, "timestamp": "2025-12-12T05:47:27.545884+00:00", "meta": {"OBJECT_NAME": "1998-067XU", "OBJECT_ID": "1998-067XU", "EPOCH": "2025-12-11T19:47:12.664032", "MEAN_MOTION": 15.51346926, "ECCENTRICITY": 0.00046963, "INCLINATION": 51.6299, "RA_OF_ASC_NODE": 146.928, "ARG_OF_PERICENTER": 220.0254, "MEAN_ANOMALY": 140.039, "EPHEMERIS_TYPE": 0, "CLASSIFICATION_TYPE": "U", "NORAD_CAT_ID": 66908, "ELEMENT_SET_NO": 999, "REV_AT_EPOCH": 147, "BSTAR": 0.0013269788, "MEAN_MOTION_DOT": 0.00079814, "MEAN_MOTION_DDOT": 0}, "tle": {"line1": "1 66908U 98067XU  25345.82445213  .00079814  00000+0  13270-2 0  9990", "line2": "2 66908  51.6299 146.9280 0004696 220.0254 140.0390 15.51346926  1474"}}, "geometry": {"type": "Point", "coordinates": [-41.586846055058714, 8.062557298122265]}}, {"type": "Feature", "properties": {"norad_id": 66909, "name": "SILVERSAT", "group": "stations", "lat": 6.602146470914941, "lon": -40.40816578035496, "alt_km": 410.23482404581864, "timestamp": "2025-12-12T05:47:27.545894+00:00", "meta": {"OBJECT_NAME": "SILVERSAT", "OBJECT_ID": "1998-067XV", "EPOCH": "2025-12-11T19:46:46.158240", "MEAN_MOTION": 15.51450033, "ECCENTRICITY": 0.00045562, "INCLINATION": 51.63, "RA_OF_ASC_NODE": 146.926, "ARG_OF_PERICENTER": 222.0234, "MEAN_ANOMALY": 138.0406, "EPHEMERIS_TYPE": 0, "CLASSIFICATION_TYPE": "U", "NORAD_CAT_ID": 66909, "ELEMENT_SET_NO": 999, "REV_AT_EPOCH": 147, "BSTAR": 0.0013718352, "MEAN_MOTION_DOT": 0.00082864, "MEAN_MOTION_DDOT": 0}, "tle": {"line1": "1 66909U 98067XV  25345.82414535  .00082864  00000+0  13718-2 0  9990", "line2": "2 66909  51.6300 146.9260 0004556 222.0234 138.0406 15.51450033  1471"}}, "geometry": {"type": "Point", "coordinates": [-40.40816578035496, 6.602146470914941]}}, {"type": "Feature", "properties": {"norad_id": 66910, "name": "1998-067XW", "group": "stations", "lat": 0.2533022754298047, "lon": -35.36369546580538, "alt_km": 409.33559203614186, "timestamp": "2025-12-12T05:47:27.545904+00:00", "meta": {"OBJECT_NAME": "1998-067XW", "OBJECT_ID": "1998-067XW", "EPOCH": "2025-12-11T19:44:44.282400", "MEAN_MOTION": 15.51588385, "ECCENTRICITY": 0.0005376, "INCLINATION": 51.6301, "RA_OF_ASC_NODE": 146.917, "ARG_OF_PERICENTER": 203.4285, "MEAN_ANOMALY": 156.646, "EPHEMERIS_TYPE": 0, "CLASSIFICATION_TYPE": "U", "NORAD_CAT_ID": 66910, "ELEMENT_SET_NO": 999, "REV_AT_EPOCH": 147, "BSTAR": 0.0011426696, "MEAN_MOTION_DOT": 0.00069176, "MEAN_MOTION_DDOT": 0}, "tle": {"line1": "1 66910U 98067XW  25345.82273475  .00069176  00000+0  11427-2 0  9994", "line2": "2 66910  51.6301 146.9170 0005376 203.4285 156.6460 15.51588385  1472"}}, "geometry": {"type": "Point", "coordinates": [-35.36369546580538, 0.2533022754298047]}}]}